{"type":"FeatureCollection","generator":"overpass-turbo","copyright":"The data included in this document is from www.openstreetmap.org. The data is made available under ODbL.","timestamp":"2026-08-08T08:21:30Z","features":[{"type":"Feature","properties":{"@id":"node/7554728697","denotation":"natural_monument","leaf_cycle":"evergreen","leaf_type":"needleleaved","name":"Daglezja","natural":"tree","distanceToTrail":1034},"geometry":{"type":"Point","coordinates":[19.1696861,49.8367404]},"id":"node/7554728697"},{"type":"Feature","properties":{"@id":"node/7714586544","denotation":"natural_monument","inscription":"DĄB WOLNOŚCI ZASADZONY W 1923 R. PRZEZ WETERANÓW I WOJNY ŚWIATOWEJ W 5 ROCZNICĘ ODZYSKANIA PRZEZ POLSKĘ NIEPODLEGŁOŚCI TMZZ O/W PORĄBCE 11.11.1999 R.P.","leaf_cycle":"deciduous","leaf_type":"broadleaved","name":"Dąb Wolności 1923 r.","natural":"tree","species":"Quercus robur","distanceToTrail":1347},"geometry":{"type":"Point","coordinates":[19.2182853,49.8210119]},"id":"node/7714586544"},{"type":"Feature","properties":{"@id":"node/12086905484","circumference":"106 cm","denotation":"natural_monument","description":"Wiek starszego drzewa wynosi 686 lat. Jest to okaz żeński, o pierśnicy 320 cm, wysokości 10,5 m i rozpiętości korony 8 na 9 metrów. Jego pień jest w środku pusty, lecz niegdyś wypełniony był betonową plombą.","height":"12","leaf_cycle":"evergreen","leaf_type":"needleleaved","natural":"tree","species":"Taxus","distanceToTrail":963},"geometry":{"type":"Point","coordinates":[19.7723597,49.7942943]},"id":"node/12086905484"},{"type":"Feature","properties":{"@id":"node/12086905485","circumference":"60 cm","denotation":"natural_monument","description":"Młodszy cis jest okazem męskim o wysokości 10,5 m i 163 cm w obwodzie pnia.","height":"12","leaf_cycle":"evergreen","leaf_type":"needleleaved","natural":"tree","species":"Taxus","distanceToTrail":951},"geometry":{"type":"Point","coordinates":[19.7723503,49.7941825]},"id":"node/12086905485"},{"type":"Feature","properties":{"@id":"node/12147236260","denotation":"natural_monument","information":"route_marker","leaf_cycle":"deciduous","leaf_type":"broadleaved","natural":"tree","species":"Quercus robur","tourism":"information","distanceToTrail":266},"geometry":{"type":"Point","coordinates":[19.4838558,49.7565865]},"id":"node/12147236260"},{"type":"Feature","properties":{"@id":"node/12456840248","circumference":"67 cm","denotation":"natural_monument","height":"12","leaf_cycle":"evergreen","leaf_type":"needleleaved","natural":"tree","species":"Taxus","distanceToTrail":513},"geometry":{"type":"Point","coordinates":[19.7604141,49.7921029]},"id":"node/12456840248"},{"type":"Feature","properties":{"@id":"node/12456840249","circumference":"52 cm","denotation":"natural_monument","height":"8","leaf_cycle":"evergreen","leaf_type":"needleleaved","natural":"tree","species":"Taxus","distanceToTrail":687},"geometry":{"type":"Point","coordinates":[19.7660873,49.7914095]},"id":"node/12456840249"},{"type":"Feature","properties":{"@id":"node/12456840250","circumference":"45 cm","denotation":"natural_monument","height":"8","leaf_cycle":"evergreen","leaf_type":"needleleaved","natural":"tree","species":"Taxus","distanceToTrail":687},"geometry":{"type":"Point","coordinates":[19.7661528,49.7914059]},"id":"node/12456840250"},{"type":"Feature","properties":{"@id":"node/12456840251","circumference":"52 cm","denotation":"natural_monument","height":"7","leaf_cycle":"evergreen","leaf_type":"needleleaved","natural":"tree","species":"Taxus baccata","distanceToTrail":941},"geometry":{"type":"Point","coordinates":[19.7648526,49.7946742]},"id":"node/12456840251"},{"type":"Feature","properties":{"@id":"node/13721602280","denotation":"natural_monument","leaf_cycle":"deciduous","leaf_type":"broadleaved","natural":"tree","species":"Wiąz Górski","distanceToTrail":1594},"geometry":{"type":"Point","coordinates":[19.190037,49.8427896]},"id":"node/13721602280"}]}